STARLINK-5577           
1 55751U 23028L   26068.86151139  .00000480  00000+0  48002-4 0  9993
2 55751  69.9992 244.1117 0002156 271.7261  88.3651 14.98327635166067
METHANESAT              
1 59101U 24043D   26068.92538335  .00003748  00000+0  32562-3 0  9991
2 59101  97.8288 199.6058 0010053 350.2517   9.8508 14.97588653109792
